SENTINEL-6              
1 46984U 20086A   23270.49114376 -.00000070  00000+0 -36822-4 0  9999
2 46984  66.0433  38.9666 0007843 267.9601  92.0516 12.80929865133051
